NORAD_CAT_ID,OBJECT_NAME,OBJECT_TYPE,EPOCH,MEAN_MOTION,ECCENTRICITY,INCLINATION,RA_OF_ASC_NODE,ARG_OF_PERICENTER,MEAN_ANOMALY,BSTAR,MEAN_MOTION_DOT,MEAN_MOTION_DDOT,TLE_LINE0,TLE_LINE1,TLE_LINE2,SEMIMAJOR_AXIS,PERIOD,APOGEE,PERIGEE,DECAYED
52111.0,STARLINK-3708,PAYLOAD,2023-09-13 03:11:08,15.08847572,0.000142,53.2167,197.7945,94.8899,265.2255,0.00013591,1.876e-05,0.0,0 STARLINK-3708,1 52111U 22029Z   23256.13273896  .00001876  00000-0  13591-3 0  9996,2 52111  53.2167 197.7945 0001420  94.8899 265.2255 15.08847572 83625,6917.857,95.437,540.705,538.74,0.0
52111.0,STARLINK-3708,PAYLOAD,2023-09-13 06:21:54,15.08849033,0.0001408,53.2167,197.1994,94.1541,265.9612,0.00015618,2.199e-05,0.0,0 STARLINK-3708,1 52111U 22029Z   23256.26521799  .00002199  00000-0  15618-3 0  9999,2 52111  53.2167 197.1994 0001408  94.1541 265.9612 15.08849033 83646,6917.853,95.437,540.692,538.744,0.0
52111.0,STARLINK-3708,PAYLOAD,2023-09-13 20:40:23,15.08833419,0.0001125,53.2179,194.5232,81.1395,278.9724,-9.0986e-05,-1.735e-05,0.0,0 STARLINK-3708,1 52111U 22029Z   23256.86138512 -.00001735  00000-0 -90986-4 0  9991,2 52111  53.2179 194.5232 0001125  81.1395 278.9724 15.08833419 83733,6917.901,95.438,540.544,538.987,0.0
52111.0,STARLINK-3708,PAYLOAD,2023-09-14 01:26:32,15.08841402,0.0001387,53.2171,193.6281,102.922,257.1928,-8.6903e-06,-4.26e-06,0.0,0 STARLINK-3708,1 52111U 22029Z   23257.06009969 -.00000426  00000-0 -86903-5 0  9998,2 52111  53.2171 193.6281 0001387 102.9220 257.1928 15.08841402 83767,6917.876,95.437,540.701,538.782,0.0
52111.0,STARLINK-3708,PAYLOAD,2023-09-14 04:37:18,15.088467,0.0001451,53.2176,193.0344,106.5392,253.576,7.7582e-05,9.47e-06,0.0,0 STARLINK-3708,1 52111U 22029Z   23257.19257687  .00000947  00000-0  77582-4 0  9992,2 52111  53.2176 193.0344 0001451 106.5392 253.5760 15.08846700 83780,6917.86,95.437,540.729,538.721,0.0
52111.0,STARLINK-3708,PAYLOAD,2023-09-14 18:55:47,15.08836648,0.0001238,53.2165,190.3564,82.1598,277.9534,-8.8904e-05,-1.702e-05,0.0,0 STARLINK-3708,1 52111U 22029Z   23257.78874491 -.00001702  00000-0 -88904-4 0  9997,2 52111  53.2165 190.3564 0001238  82.1598 277.9534 15.08836648 83871,6917.891,95.438,540.612,538.899,0.0
52111.0,STARLINK-3708,PAYLOAD,2023-09-15 06:03:29,15.0884047,0.000129,53.2169,188.275,90.0774,270.0366,5.7378e-06,-1.97e-06,0.0,0 STARLINK-3708,1 52111U 22029Z   23258.25242395 -.00000197  00000-0  57378-5 0  9990,2 52111  53.2169 188.2750 0001290  90.0774 270.0366 15.08840470 83943,6917.879,95.438,540.636,538.852,0.0
52111.0,STARLINK-3708,PAYLOAD,2023-09-16 02:43:30,15.08841267,0.0001351,53.2176,184.4094,88.6603,271.4544,0.00013053,1.79e-05,0.0,0 STARLINK-3708,1 52111U 22029Z   23259.11354793  .00001790  00000-0  13053-3 0  9991,2 52111  53.2176 184.4094 0001351  88.6603 271.4544 15.08841267 84075,6917.877,95.437,540.676,538.807,0.0
52111.0,STARLINK-3708,PAYLOAD,2023-09-16 04:18:53,15.08844223,0.0001383,53.2177,184.112,91.6668,268.4483,0.00017662,2.524e-05,0.0,0 STARLINK-3708,1 52111U 22029Z   23259.17978691  .00002524  00000-0  17662-3 0  9992,2 52111  53.2177 184.1120 0001383  91.6668 268.4483 15.08844223 84087,6917.867,95.437,540.689,538.776,0.0
52111.0,STARLINK-3708,PAYLOAD,2023-09-17 00:58:54,15.08839657,0.0001396,53.2177,180.246,93.8046,266.3106,0.00013374,1.841e-05,0.0,0 STARLINK-3708,1 52111U 22029Z   23260.04091206  .00001841  00000-0  13374-3 0  9995,2 52111  53.2177 180.2460 0001396  93.8046 266.3106 15.08839657 84218,6917.881,95.438,540.712,538.781,0.0
52111.0,STARLINK-3708,PAYLOAD,2023-09-17 04:09:40,15.08847145,0.0001415,53.2178,179.6502,95.3748,264.7406,0.00022737,3.333e-05,0.0,0 STARLINK-3708,1 52111U 22029Z   23260.17338872  .00003333  00000-0  22737-3 0  9993,2 52111  53.2178 179.6502 0001415  95.3748 264.7406 15.08847145 84234,6917.859,95.437,540.702,538.745,0.0
52111.0,STARLINK-3708,PAYLOAD,2023-09-18 04:00:27,15.08858103,0.0001591,53.2186,175.188,104.3192,255.7977,0.00028166,4.2e-05,0.0,0 STARLINK-3708,1 52111U 22029Z   23261.16698060  .00004200  00000-0  28166-3 0  9997,2 52111  53.2186 175.1880 0001591 104.3192 255.7977 15.08858103 84387,6917.825,95.436,540.791,538.589,0.0
52111.0,STARLINK-3708,PAYLOAD,2023-09-18 21:29:42,15.08840159,0.0001467,53.2166,171.9197,89.6836,270.4325,0.0003633,5.499e-05,0.0,0 STARLINK-3708,1 52111U 22029Z   23261.89562972  .00005499  00000-0  36330-3 0  9992,2 52111  53.2166 171.9197 0001467  89.6836 270.4325 15.08840159 84497,6917.88,95.438,540.76,538.73,0.0
52111.0,STARLINK-3708,PAYLOAD,2023-09-19 00:40:28,15.08849156,0.0001599,53.2183,171.3248,93.3363,266.7812,0.000173,2.467e-05,0.0,0 STARLINK-3708,1 52111U 22029Z   23262.02810505  .00002467  00000-0  17300-3 0  9994,2 52111  53.2183 171.3248 0001599  93.3363 266.7812 15.08849156 84518,6917.852,95.437,540.824,538.611,0.0
52111.0,STARLINK-3708,PAYLOAD,2023-09-20 03:42:00,15.08858803,0.0001444,53.2172,166.2683,89.2911,270.8247,0.00032822,4.942e-05,0.0,0 STARLINK-3708,1 52111U 22029Z   23263.15417570  .00004942  00000-0  32822-3 0  9990,2 52111  53.2172 166.2683 0001444  89.2911 270.8247 15.08858803 84689,6917.823,95.436,540.687,538.689,0.0
52111.0,STARLINK-3708,PAYLOAD,2023-09-20 18:00:30,15.08821606,0.0001547,53.2177,163.5926,95.6575,264.4594,-0.00031096,-5.231e-05,0.0,0 STARLINK-3708,1 52111U 22029Z   23263.75035438 -.00005231  00000-0 -31096-3 0  9991,2 52111  53.2177 163.5926 0001547  95.6575 264.4594 15.08821606 84770,6917.937,95.439,540.872,538.731,0.0
52111.0,STARLINK-3708,PAYLOAD,2023-09-20 21:11:17,15.08819347,0.0001525,53.2171,162.9983,93.9122,266.2044,-0.00032842,-5.508e-05,0.0,0 STARLINK-3708,1 52111U 22029Z   23263.88283681 -.00005508  00000-0 -32842-3 0  9997,2 52111  53.2171 162.9983 0001525  93.9122 266.2044 15.08819347 84796,6917.944,95.439,540.864,538.754,0.0
52111.0,STARLINK-3708,PAYLOAD,2023-09-21 03:32:50,15.08822891,0.0001385,53.2173,161.8119,87.7444,272.3707,-0.00015513,-2.755e-05,0.0,0 STARLINK-3708,1 52111U 22029Z   23264.14780124 -.00002755  00000-0 -15513-3 0  9998,2 52111  53.2173 161.8119 0001385  87.7444 272.3707 15.08822891 84836,6917.933,95.439,540.756,538.84,0.0
52111.0,STARLINK-3708,PAYLOAD,2023-09-21 16:15:55,15.08828381,0.0001383,53.216,159.4282,89.6692,270.4459,1.5745e-05,-3.7e-07,0.0,0 STARLINK-3708,1 52111U 22029Z   23264.67772336 -.00000037  00000-0  15745-4 0  9990,2 52111  53.2160 159.4282 0001383  89.6692 270.4459 15.08828381 84912,6917.916,95.438,540.738,538.824,0.0
52111.0,STARLINK-3708,PAYLOAD,2023-09-22 01:48:13,15.08851961,0.0001328,53.2165,157.6493,82.7732,277.3412,0.00072847,0.00011328,0.0,0 STARLINK-3708,1 52111U 22029Z   23265.07515873  .00011328  00000-0  72847-3 0  9995,2 52111  53.2165 157.6493 0001328  82.7732 277.3412 15.08851961 84970,6917.844,95.437,540.628,538.79,0.0
52111.0,STARLINK-3708,PAYLOAD,2023-09-22 03:23:36,15.08858863,0.0001318,53.2165,157.3518,81.7347,278.3795,0.0012073,0.00018988,0.0,0 STARLINK-3708,1 52111U 22029Z   23265.14139962  .00018988  00000-0  12073-2 0  9997,2 52111  53.2165 157.3518 0001318  81.7347 278.3795 15.08858863 84989,6917.823,95.436,540.6,538.776,0.0
52111.0,STARLINK-3708,PAYLOAD,2023-09-23 01:39:00,15.08873407,0.0001158,53.2161,153.1878,96.1173,263.9951,0.0016378,0.00025898,0.0,0 STARLINK-3708,1 52111U 22029Z   23266.06875054  .00025898  00000-0  16378-2 0  9998,2 52111  53.2161 153.1878 0001158  96.1173 263.9951 15.08873407 85129,6917.778,95.435,540.444,538.842,0.0
52111.0,STARLINK-3708,PAYLOAD,2023-09-23 03:14:23,15.08875642,0.0001156,53.2161,152.8905,95.9313,264.1811,0.0014895,0.0002352,0.0,0 STARLINK-3708,1 52111U 22029Z   23266.13498875  .00023520  00000-0  14895-2 0  9990,2 52111  53.2161 152.8905 0001156  95.9313 264.1811 15.08875642 85139,6917.771,95.435,540.436,538.837,0.0
52111.0,STARLINK-3708,PAYLOAD,2023-09-24 01:29:47,15.08844671,0.0001272,53.2159,148.7276,103.3064,256.807,0.00054723,8.433e-05,0.0,0 STARLINK-3708,1 52111U 22029Z   23267.06235355  .00008433  00000-0  54723-3 0  9996,2 52111  53.2159 148.7276 0001272 103.3064 256.8070 15.08844671 85275,6917.866,95.437,540.611,538.851,0.0
52111.0,STARLINK-3708,PAYLOAD,2023-09-24 03:05:10,15.08852707,0.0001209,53.2158,148.4301,108.4896,251.6228,0.00051509,7.922e-05,0.0,0 STARLINK-3708,1 52111U 22029Z   23267.12859123  .00007922  00000-0  51509-3 0  9999,2 52111  53.2158 148.4301 0001209 108.4896 251.6228 15.08852707 85287,6917.842,95.437,540.543,538.87,0.0
52111.0,STARLINK-3708,PAYLOAD,2023-09-24 22:09:48,15.08841548,0.0001372,53.2161,144.8626,91.8003,268.3146,0.0012052,0.00018946,0.0,0 STARLINK-3708,1 52111U 22029Z   23267.92347856  .00018946  00000-0  12052-2 0  9999,2 52111  53.2161 144.8626 0001372  91.8003 268.3146 15.08841548 85406,6917.876,95.437,540.69,538.792,0.0
52111.0,STARLINK-3708,PAYLOAD,2023-09-25 09:17:30,15.08859643,0.0001518,53.2152,142.782,75.0392,285.0768,0.0011512,0.00018091,0.0,0 STARLINK-3708,1 52111U 22029Z   23268.38715630  .00018091  00000-0  11512-2 0  9990,2 52111  53.2152 142.7820 0001518  75.0392 285.0768 15.08859643 85474,6917.82,95.436,540.735,538.635,0.0
52111.0,STARLINK-3708,PAYLOAD,2023-09-25 22:00:35,15.08855524,0.0001543,53.216,140.4034,80.5785,279.5382,0.00055903,8.624e-05,0.0,0 STARLINK-3708,1 52111U 22029Z   23268.91707362  .00008624  00000-0  55903-3 0  9996,2 52111  53.2160 140.4034 0001543  80.5785 279.5382 15.08855524 85553,6917.833,95.437,540.765,538.631,0.0
52111.0,STARLINK-3708,PAYLOAD,2023-09-26 01:11:21,15.08862055,0.0001532,53.2162,139.8067,87.9936,272.1231,0.00068014,0.00010559,0.0,0 STARLINK-3708,1 52111U 22029Z   23269.04955030  .00010559  00000-0  68014-3 0  9995,2 52111  53.2162 139.8067 0001532  87.9936 272.1231 15.08862055 85571,6917.813,95.436,540.738,538.618,0.0
52111.0,STARLINK-3708,PAYLOAD,2023-09-26 20:15:59,15.0883415,0.0001301,53.2156,136.2395,99.7288,260.3851,-3.2792e-05,-8.1e-06,0.0,0 STARLINK-3708,1 52111U 22029Z   23269.84443867 -.00000810  00000-0 -32792-4 0  9999,2 52111  53.2156 136.2395 0001301  99.7288 260.3851 15.08834150 85699,6917.898,95.438,540.663,538.863,0.0
